{"type": "FeatureCollection", "features": [ {"type": "Feature", "properties": {"norad_id": 34681, "name": "COSMOS 2251 DEB", "group": "cosmos-2251-debris", "lat": -51.524840041044705, "lon": -74.70786380735208, "alt_km": 617.4396710270448, "timestamp": "2025-12-04T15:47:54.494092+00:00", "meta": {"OBJECT_NAME": "COSMOS 2251 DEB", "OBJECT_ID": "1993-036YB", "EPOCH": "2025-12-04T04:45:24.224256", "MEAN_MOTION": 14.82871626, "ECCENTRICITY": 0.00256936, "INCLINATION": 74.0621, "RA_OF_ASC_NODE": 307.2748, "ARG_OF_PERICENTER": 5.3653, "MEAN_ANOMALY": 5.44, "EPHEMERIS_TYPE": 0, "CLASSIFICATION_TYPE": "U", "NORAD_CAT_ID": 34681, "ELEMENT_SET_NO": 999, "REV_AT_EPOCH": 89144, "BSTAR": 0.003288506, "MEAN_MOTION_DOT": 0.00026873, "MEAN_MOTION_DDOT": 0}, "tle": {"line1": "1 34681U 93036YB  25338.19819704  .00026873  00000+0  32885-2 0  9996", "line2": "2 34681  74.0621 307.2748 0025693   5.3653   5.4400 14.82871626891446"}}, "geometry": {"type": "Point", "coordinates": [-74.70786380735208, -51.524840041044705]}}, {"type": "Feature", "properties": {"norad_id": 34682, "name": "COSMOS 2251 DEB", "group": "cosmos-2251-debris", "lat": 41.390737266332344, "lon": 112.98768964494205, "alt_km": 706.5639085897001, "timestamp": "2025-12-04T15:47:54.494105+00:00", "meta": {"OBJECT_NAME": "COSMOS 2251 DEB", "OBJECT_ID": "1993-036YC", "EPOCH": "2025-12-03T08:28:16.036032", "MEAN_MOTION": 14.58771685, "ECCENTRICITY": 0.0018745, "INCLINATION": 74.0388, "RA_OF_ASC_NODE": 100.8621, "ARG_OF_PERICENTER": 234.1512, "MEAN_ANOMALY": 157.2088, "EPHEMERIS_TYPE": 0, "CLASSIFICATION_TYPE": "U", "NORAD_CAT_ID": 34682, "ELEMENT_SET_NO": 999, "REV_AT_EPOCH": 88549, "BSTAR": 0.0013546, "MEAN_MOTION_DOT": 6.321e-05, "MEAN_MOTION_DDOT": 0}, "tle": {"line1": "1 34682U 93036YC  25337.35296338  .00006321  00000+0  13546-2 0  9995", "line2": "2 34682  74.0388 100.8621 0018745 234.1512 157.2088 14.58771685885493"}}, "geometry": {"type": "Point", "coordinates": [112.98768964494205, 41.390737266332344]}}, {"type": "Feature", "properties": {"norad_id": 34683, "name": "COSMOS 2251 DEB", "group": "cosmos-2251-debris", "lat": 33.15865202848697, "lon": 118.58839717839298, "alt_km": 690.1573181466274, "timestamp": "2025-12-04T15:47:54.494116+00:00", "meta": {"OBJECT_NAME": "COSMOS 2251 DEB", "OBJECT_ID": "1993-036YD", "EPOCH": "2025-12-03T18:51:40.823424", "MEAN_MOTION": 14.64268609, "ECCENTRICITY": 0.0018837, "INCLINATION": 74.0284, "RA_OF_ASC_NODE": 109.4798, "ARG_OF_PERICENTER": 224.3122, "MEAN_ANOMALY": 253.6547, "EPHEMERIS_TYPE": 0, "CLASSIFICATION_TYPE": "U", "NORAD_CAT_ID": 34683, "ELEMENT_SET_NO": 999, "REV_AT_EPOCH": 88217, "BSTAR": 0.0021599236, "MEAN_MOTION_DOT": 0.00011406, "MEAN_MOTION_DDOT": 0}, "tle": {"line1": "1 34683U 93036YD  25337.78588916  .00011406  00000+0  21599-2 0  9996", "line2": "2 34683  74.0284 109.4798 0018837 224.3122 253.6547 14.64268609882176"}}, "geometry": {"type": "Point", "coordinates": [118.58839717839298, 33.15865202848697]}}, {"type": "Feature", "properties": {"norad_id": 34685, "name": "COSMOS 2251 DEB", "group": "cosmos-2251-debris", "lat": 26.26575231940352, "lon": 172.27157633031626, "alt_km": 705.3505728902037, "timestamp": "2025-12-04T15:47:54.494126+00:00", "meta": {"OBJECT_NAME": "COSMOS 2251 DEB", "OBJECT_ID": "1993-036YF", "EPOCH": "2025-12-03T23:46:05.230848", "MEAN_MOTION": 14.57379377, "ECCENTRICITY": 0.00144098, "INCLINATION": 74.0286, "RA_OF_ASC_NODE": 165.4159, "ARG_OF_PERICENTER": 269.3813, "MEAN_ANOMALY": 215.0589, "EPHEMERIS_TYPE": 0, "CLASSIFICATION_TYPE": "U", "NORAD_CAT_ID": 34685, "ELEMENT_SET_NO": 999, "REV_AT_EPOCH": 88404, "BSTAR": 0.0019131559, "MEAN_MOTION_DOT": 8.667e-05, "MEAN_MOTION_DDOT": 0}, "tle": {"line1": "1 34685U 93036YF  25337.99033832  .00008667  00000+0  19132-2 0  9998", "line2": "2 34685  74.0286 165.4159 0014409 269.3813 215.0589 14.57379377884043"}}, "geometry": {"type": "Point", "coordinates": [172.27157633031626, 26.26575231940352]}}, {"type": "Feature", "properties": {"norad_id": 34689, "name": "COSMOS 2251 DEB", "group": "cosmos-2251-debris", "lat": -25.153721047300422, "lon": -130.24848128160048, "alt_km": 733.7165296575549, "timestamp": "2025-12-04T15:47:54.494137+00:00", "meta": {"OBJECT_NAME": "COSMOS 2251 DEB", "OBJECT_ID": "1993-036YK", "EPOCH": "2025-12-01T04:52:05.077056", "MEAN_MOTION": 14.04150485, "ECCENTRICITY": 0.0229843, "INCLINATION": 74.0888, "RA_OF_ASC_NODE": 243.4543, "ARG_OF_PERICENTER": 314.8144, "MEAN_ANOMALY": 197.2792, "EPHEMERIS_TYPE": 0, "CLASSIFICATION_TYPE": "U", "NORAD_CAT_ID": 34689, "ELEMENT_SET_NO": 999, "REV_AT_EPOCH": 84179, "BSTAR": 0.0056499, "MEAN_MOTION_DOT": 0.00011323, "MEAN_MOTION_DDOT": 0}, "tle": {"line1": "1 34689U 93036YK  25335.20283654  .00011323  00000+0  56499-2 0  9993", "line2": "2 34689  74.0888 243.4543 0229843 314.8144 197.2792 14.04150485841793"}}, "geometry": {"type": "Point", "coordinates": [-130.24848128160048, -25.153721047300422]}}, {"type": "Feature", "properties": {"norad_id": 34721, "name": "COSMOS 2251 DEB", "group": "cosmos-2251-debris", "lat": -37.89816267984988, "lon": 173.244035860065, "alt_km": 829.0719917530887, "timestamp": "2025-12-04T15:47:54.494147+00:00", "meta": {"OBJECT_NAME": "COSMOS 2251 DEB", "OBJECT_ID": "1993-036YP", "EPOCH": "2025-12-03T18:59:35.690784", "MEAN_MOTION": 13.96776355, "ECCENTRICITY": 0.02239774, "INCLINATION": 73.9228, "RA_OF_ASC_NODE": 341.7745, "ARG_OF_PERICENTER": 282.3054, "MEAN_ANOMALY": 262.1948, "EPHEMERIS_TYPE": 0, "CLASSIFICATION_TYPE": "U", "NORAD_CAT_ID": 34721, "ELEMENT_SET_NO": 999, "REV_AT_EPOCH": 85024, "BSTAR": 0.002612765, "MEAN_MOTION_DOT": 4.461e-05, "MEAN_MOTION_DDOT": 0}, "tle": {"line1": "1 34721U 93036YP  25337.79138531  .00004461  00000+0  26128-2 0  9990", "line2": "2 34721  73.9228 341.7745 0223977 282.3054 262.1948 13.96776355850248"}}, "geometry": {"type": "Point", "coordinates": [173.244035860065, -37.89816267984988]}}, {"type": "Feature", "properties": {"norad_id": 34722, "name": "COSMOS 2251 DEB", "group": "cosmos-2251-debris", "lat": 10.16888488256214, "lon": -6.541923942856733, "alt_km": 858.9967881416351, "timestamp": "2025-12-04T15:47:54.494158+00:00", "meta": {"OBJECT_NAME": "COSMOS 2251 DEB", "OBJECT_ID": "1993-036YQ", "EPOCH": "2025-12-04T07:19:22.888128", "MEAN_MOTION": 14.11891553, "ECCENTRICITY": 0.01674357, "INCLINATION": 73.8717, "RA_OF_ASC_NODE": 351.1126, "ARG_OF_PERICENTER": 278.1012, "MEAN_ANOMALY": 96.4172, "EPHEMERIS_TYPE": 0, "CLASSIFICATION_TYPE": "U", "NORAD_CAT_ID": 34722, "ELEMENT_SET_NO": 999, "REV_AT_EPOCH": 86126, "BSTAR": 0.0014680147, "MEAN_MOTION_DOT": 3.034e-05, "MEAN_MOTION_DDOT": 0}, "tle": {"line1": "1 34722U 93036YQ  25338.30512602  .00003034  00000+0  14680-2 0  9999", "line2": "2 34722  73.8717 351.1126 0167435 278.1012  96.4172 14.11891553861269"}}, "geometry": {"type": "Point", "coordinates": [-6.541923942856733, 10.16888488256214]}}, {"type": "Feature", "properties": {"norad_id": 34726, "name": "COSMOS 2251 DEB", "group": "cosmos-2251-debris", "lat": 73.33329935731359, "lon": 108.68585818076455, "alt_km": 672.5944810834371, "timestamp": "2025-12-04T15:47:54.494169+00:00", "meta": {"OBJECT_NAME": "COSMOS 2251 DEB", "OBJECT_ID": "1993-036YU", "EPOCH": "2025-12-04T05:29:38.176512", "MEAN_MOTION": 14.59432609, "ECCENTRICITY": 0.00424778, "INCLINATION": 74.0292, "RA_OF_ASC_NODE": 2.5592, "ARG_OF_PERICENTER": 155.9312, "MEAN_ANOMALY": 204.3851, "EPHEMERIS_TYPE": 0, "CLASSIFICATION_TYPE": "U", "NORAD_CAT_ID": 34726, "ELEMENT_SET_NO": 999, "REV_AT_EPOCH": 88378, "BSTAR": 0.0008426543, "MEAN_MOTION_DOT": 4.017e-05, "MEAN_MOTION_DDOT": 0}, "tle": {"line1": "1 34726U 93036YU  25338.22891408  .00004017  00000+0  84265-3 0  9997", "line2": "2 34726  74.0292   2.5592 0042477 155.9312 204.3851 14.59432609883781"}}, "geometry": {"type": "Point", "coordinates": [108.68585818076455, 73.33329935731359]}}, {"type": "Feature", "properties": {"norad_id": 34728, "name": "COSMOS 2251 DEB", "group": "cosmos-2251-debris", "lat": 3.314277033455694, "lon": -91.57186572757945, "alt_km": 648.3048919099265, "timestamp": "2025-12-04T15:47:54.494179+00:00", "meta": {"OBJECT_NAME": "COSMOS 2251 DEB", "OBJECT_ID": "1993-036YW", "EPOCH": "2025-12-03T02:14:02.628672", "MEAN_MOTION": 14.70683723, "ECCENTRICITY": 0.0040693, "INCLINATION": 74.0187, "RA_OF_ASC_NODE": 270.5171, "ARG_OF_PERICENTER": 70.8224, "MEAN_ANOMALY": 289.7344, "EPHEMERIS_TYPE": 0, "CLASSIFICATION_TYPE": "U", "NORAD_CAT_ID": 34728, "ELEMENT_SET_NO": 999, "REV_AT_EPOCH": 88658, "BSTAR": 0.0010464414, "MEAN_MOTION_DOT": 6.43e-05, "MEAN_MOTION_DDOT": 0}, "tle": {"line1": "1 34728U 93036YW  25337.09308598  .00006430  00000+0  10464-2 0  9996", "line2": "2 34728  74.0187 270.5171 0040693  70.8224 289.7344 14.70683723886584"}}, "geometry": {"type": "Point", "coordinates": [-91.57186572757945, 3.314277033455694]}}, {"type": "Feature", "properties": {"norad_id": 34729, "name": "COSMOS 2251 DEB", "group": "cosmos-2251-debris", "lat": 31.886088250881716, "lon": 24.70483112438081, "alt_km": 621.6718263282373, "timestamp": "2025-12-04T15:47:54.494189+00:00", "meta": {"OBJECT_NAME": "COSMOS 2251 DEB", "OBJECT_ID": "1993-036YX", "EPOCH": "2025-12-04T06:29:51.889344", "MEAN_MOTION": 14.82422938, "ECCENTRICITY": 0.00121201, "INCLINATION": 74.0191, "RA_OF_ASC_NODE": 15.2018, "ARG_OF_PERICENTER": 139.6246, "MEAN_ANOMALY": 346.6413, "EPHEMERIS_TYPE": 0, "CLASSIFICATION_TYPE": "U", "NORAD_CAT_ID": 34729, "ELEMENT_SET_NO": 999, "REV_AT_EPOCH": 88332, "BSTAR": 0.0044122419, "MEAN_MOTION_DOT": 0.00035568, "MEAN_MOTION_DDOT": 0}, "tle": {"line1": "1 34729U 93036YX  25338.27073946  .00035568  00000+0  44122-2 0  9996", "line2": "2 34729  74.0191  15.2018 0012120 139.6246 346.6413 14.82422938883327"}}, "geometry": {"type": "Point", "coordinates": [24.70483112438081, 31.886088250881716]}}]}